start=new Date('2023-04-03T00:00:00.000Z').valueOf();
sats=[{"REV_AT_EPOCH":"8750","EPHEMERIS_TYPE":"0","OBJECT_ID":"2021-082AC","TLE_LINE2":"2 49156  70.0013  76.7892 0002870 268.8162  91.2668 14.98331889 87503","ECCENTRICITY":"0.00028700","TLE_LINE1":"1 49156U 21082AC  23092.91138063  .00001030  00000-0  94132-4 0  9992","BSTAR":"0.00009413200000","ELEMENT_SET_NO":"999","DECAY_DATE":null,"OBJECT_TYPE":"PAYLOAD","LAUNCH_DATE":"2021-09-14","NORAD_CAT_ID":"49156","TIME_SYSTEM":"UTC","MEAN_ANOMALY":"91.2668","OBJECT_NAME":"STARLINK-3085","RCS_SIZE":"LARGE","SEMIMAJOR_AXIS":"6950.187","PERIOD":"96.107","MEAN_ELEMENT_THEORY":"SGP4","MEAN_MOTION":"14.98331889","MEAN_MOTION_DOT":"0.00001030","MEAN_MOTION_DDOT":"0.0000000000000","SITE":"AFWTR","INCLINATION":"70.0013","CENTER_NAME":"EARTH","REF_FRAME":"TEME","EPOCH":"2023-04-02T21:52:23.286432","APOAPSIS":"574.047","PERIAPSIS":"570.057","CLASSIFICATION_TYPE":"U","RA_OF_ASC_NODE":"76.7892","FILE":"3878419","ARG_OF_PERICENTER":"268.8162","COUNTRY_CODE":"US","GP_ID":"229350777"},{"RA_OF_ASC_NODE":"98.0141","CLASSIFICATION_TYPE":"U","PERIAPSIS":"570.139","EPOCH":"2023-04-02T10:09:44.713152","APOAPSIS":"573.981","GP_ID":"229317542","COUNTRY_CODE":"US","ARG_OF_PERICENTER":"265.1586","FILE":"3878126","SITE":"AFWTR","MEAN_MOTION_DOT":"0.00001736","MEAN_MOTION_DDOT":"0.0000000000000","MEAN_MOTION":"14.98329410","MEAN_ELEMENT_THEORY":"SGP4","REF_FRAME":"TEME","CENTER_NAME":"EARTH","INCLINATION":"69.9986","MEAN_ANOMALY":"94.9258","TIME_SYSTEM":"UTC","NORAD_CAT_ID":"49157","LAUNCH_DATE":"2021-09-14","SEMIMAJOR_AXIS":"6950.195","PERIOD":"96.107","OBJECT_NAME":"STARLINK-3051","RCS_SIZE":"LARGE","TLE_LINE1":"1 49157U 21082AD  23092.42343418  .00001736  00000-0  15326-3 0  9991","ECCENTRICITY":"0.00027640","TLE_LINE2":"2 49157  69.9986  98.0141 0002764 265.1586  94.9258 14.98329410 86956","OBJECT_ID":"2021-082AD","REV_AT_EPOCH":"8695","EPHEMERIS_TYPE":"0","DECAY_DATE":null,"OBJECT_TYPE":"PAYLOAD","ELEMENT_SET_NO":"999","BSTAR":"0.00015326000000"},{"COUNTRY_CODE":"US","GP_ID":"229351757","FILE":"3878419","ARG_OF_PERICENTER":"282.8292","RA_OF_ASC_NODE":"97.0187","CLASSIFICATION_TYPE":"U","APOAPSIS":"567.629","EPOCH":"2023-04-02T16:57:09.901440","PERIAPSIS":"560.159","CENTER_NAME":"EARTH","REF_FRAME":"TEME","INCLINATION":"69.9975","SITE":"AFWTR","MEAN_ELEMENT_THEORY":"SGP4","MEAN_MOTION_DDOT":"0.0000000000000","MEAN_MOTION_DOT":"0.00007238","MEAN_MOTION":"15.00973846","PERIOD":"95.938","SEMIMAJOR_AXIS":"6942.029","RCS_SIZE":"LARGE","OBJECT_NAME":"STARLINK-3083","TIME_SYSTEM":"UTC","NORAD_CAT_ID":"49158","MEAN_ANOMALY":"77.2267","LAUNCH_DATE":"2021-09-14","DECAY_DATE":null,"OBJECT_TYPE":"PAYLOAD","BSTAR":"0.00057305000000","ELEMENT_SET_NO":"999","ECCENTRICITY":"0.00053800","TLE_LINE2":"2 49158  69.9975  97.0187 0005380 282.8292  77.2267 15.00973846 87004","TLE_LINE1":"1 49158U 21082AE  23092.70636460  .00007238  00000-0  57305-3 0  9991","REV_AT_EPOCH":"8700","EPHEMERIS_TYPE":"0","OBJECT_ID":"2021-082AE"},{"MEAN_ANOMALY":"92.9625","TIME_SYSTEM":"UTC","NORAD_CAT_ID":"49159","LAUNCH_DATE":"2021-09-14","SEMIMAJOR_AXIS":"6950.176","PERIOD":"96.107","OBJECT_NAME":"STARLINK-3056","RCS_SIZE":"LARGE","TLE_LINE1":"1 49159U 21082AF  23092.52380017  .00000723  00000-0  68412-4 0  9990","ECCENTRICITY":"0.00029640","TLE_LINE2":"2 49159  69.9985 117.7716 0002964 267.1195  92.9625 14.98335560 86470","OBJECT_ID":"2021-082AF","REV_AT_EPOCH":"8647","EPHEMERIS_TYPE":"0","DECAY_DATE":null,"OBJECT_TYPE":"PAYLOAD","ELEMENT_SET_NO":"999","BSTAR":"0.00006841200000","RA_OF_ASC_NODE":"117.7716","CLASSIFICATION_TYPE":"U","PERIAPSIS":"569.981","EPOCH":"2023-04-02T12:34:16.334688","APOAPSIS":"574.101","GP_ID":"229316541","COUNTRY_CODE":"US","ARG_OF_PERICENTER":"267.1195","FILE":"3878126","SITE":"AFWTR","MEAN_MOTION_DOT":"0.00000723","MEAN_MOTION_DDOT":"0.0000000000000","MEAN_MOTION":"14.98335560","MEAN_ELEMENT_THEORY":"SGP4","REF_FRAME":"TEME","CENTER_NAME":"EARTH","INCLINATION":"69.9985"},{"DECAY_DATE":null,"OBJECT_TYPE":"PAYLOAD","ELEMENT_SET_NO":"999","BSTAR":"-0.00444700000000","TLE_LINE1":"1 49160U 21082AG  23092.44457701 -.00053131  00000-0 -44470-2 0  9997","TLE_LINE2":"2 49160  69.9984 117.9541 0003051 263.8184  96.2628 14.98605397 86443","ECCENTRICITY":"0.00030510","OBJECT_ID":"2021-082AG","REV_AT_EPOCH":"8644","EPHEMERIS_TYPE":"0","SEMIMAJOR_AXIS":"6949.341","PERIOD":"96.089","RCS_SIZE":"LARGE","OBJECT_NAME":"STARLINK-3095","MEAN_ANOMALY":"96.2628","NORAD_CAT_ID":"49160","TIME_SYSTEM":"UTC","LAUNCH_DATE":"2021-09-14","REF_FRAME":"TEME","CENTER_NAME":"EARTH","INCLINATION":"69.9984","SITE":"AFWTR","MEAN_MOTION":"14.98605397","MEAN_MOTION_DDOT":"0.0000000000000","MEAN_MOTION_DOT":"-0.00053131","MEAN_ELEMENT_THEORY":"SGP4","GP_ID":"229290908","COUNTRY_CODE":"US","ARG_OF_PERICENTER":"263.8184","FILE":"3877916","CLASSIFICATION_TYPE":"U","RA_OF_ASC_NODE":"117.9541","PERIAPSIS":"569.086","EPOCH":"2023-04-02T10:40:11.453664","APOAPSIS":"573.327"},{"APOAPSIS":"571.435","EPOCH":"2023-04-02T10:46:29.655840","PERIAPSIS":"567.638","CLASSIFICATION_TYPE":"U","RA_OF_ASC_NODE":"117.9398","FILE":"3878126","ARG_OF_PERICENTER":"270.6099","COUNTRY_CODE":"US","GP_ID":"229318042","MEAN_ELEMENT_THEORY":"SGP4","MEAN_MOTION":"14.99145683","MEAN_MOTION_DDOT":"0.0000000000000","MEAN_MOTION_DOT":"0.00001194","SITE":"AFWTR","INCLINATION":"69.9995","CENTER_NAME":"EARTH","REF_FRAME":"TEME","LAUNCH_DATE":"2021-09-14","NORAD_CAT_ID":"49161","TIME_SYSTEM":"UTC","MEAN_ANOMALY":"89.4747","OBJECT_NAME":"STARLINK-3080","RCS_SIZE":"LARGE","SEMIMAJOR_AXIS":"6947.672","PERIOD":"96.055","EPHEMERIS_TYPE":"0","REV_AT_EPOCH":"8644","OBJECT_ID":"2021-082AH","TLE_LINE2":"2 49161  69.9995 117.9398 0002733 270.6099  89.4747 14.99145683 86447","ECCENTRICITY":"0.00027330","TLE_LINE1":"1 49161U 21082AH  23092.44895435  .00001194  00000-0  10563-3 0  9995","BSTAR":"0.00010563000000","ELEMENT_SET_NO":"999","DECAY_DATE":null,"OBJECT_TYPE":"PAYLOAD"},{"MEAN_MOTION_DDOT":"0.0000000000000","MEAN_MOTION_DOT":"-0.00000085","MEAN_MOTION":"14.98341609","MEAN_ELEMENT_THEORY":"SGP4","SITE":"AFWTR","INCLINATION":"69.9986","REF_FRAME":"TEME","CENTER_NAME":"EARTH","PERIAPSIS":"570.061","EPOCH":"2023-04-02T12:10:14.221056","APOAPSIS":"573.983","RA_OF_ASC_NODE":"117.7998","CLASSIFICATION_TYPE":"U","ARG_OF_PERICENTER":"269.8378","FILE":"3877921","GP_ID":"229290961","COUNTRY_CODE":"US","OBJECT_ID":"2021-082AJ","REV_AT_EPOCH":"8654","EPHEMERIS_TYPE":"0","TLE_LINE1":"1 49162U 21082AJ  23092.50710904 -.00000085  00000-0  65180-6 0  9997","ECCENTRICITY":"0.00028210","TLE_LINE2":"2 49162  69.9986 117.7998 0002821 269.8378  90.2458 14.98341609 86545","ELEMENT_SET_NO":"999","BSTAR":"0.00000065180000","DECAY_DATE":null,"OBJECT_TYPE":"PAYLOAD","LAUNCH_DATE":"2021-09-14","MEAN_ANOMALY":"90.2458","TIME_SYSTEM":"UTC","NORAD_CAT_ID":"49162","OBJECT_NAME":"STARLINK-3082","RCS_SIZE":"LARGE","SEMIMAJOR_AXIS":"6950.157","PERIOD":"96.106"},{"ARG_OF_PERICENTER":"271.0355","FILE":"3878419","GP_ID":"229350528","COUNTRY_CODE":"US","PERIAPSIS":"569.921","EPOCH":"2023-04-02T17:58:23.797056","APOAPSIS":"574.190","CLASSIFICATION_TYPE":"U","RA_OF_ASC_NODE":"97.1978","INCLINATION":"69.9980","REF_FRAME":"TEME","CENTER_NAME":"EARTH","MEAN_MOTION":"14.98330665","MEAN_MOTION_DDOT":"0.0000000000000","MEAN_MOTION_DOT":"0.00000694","MEAN_ELEMENT_THEORY":"SGP4","SITE":"AFWTR","OBJECT_NAME":"STARLINK-3088","RCS_SIZE":"LARGE","SEMIMAJOR_AXIS":"6950.191","PERIOD":"96.107","LAUNCH_DATE":"2021-09-14","MEAN_ANOMALY":"89.0452","NORAD_CAT_ID":"49163","TIME_SYSTEM":"UTC","ELEMENT_SET_NO":"999","BSTAR":"0.00006594800000","OBJECT_TYPE":"PAYLOAD","DECAY_DATE":null,"OBJECT_ID":"2021-082AK","REV_AT_EPOCH":"8706","EPHEMERIS_TYPE":"0","TLE_LINE1":"1 49163U 21082AK  23092.74888654  .00000694  00000-0  65948-4 0  9997","TLE_LINE2":"2 49163  69.9980  97.1978 0003071 271.0355  89.0452 14.98330665 87065","ECCENTRICITY":"0.00030710"},{"EPOCH":"2023-04-02T17:46:23.290176","APOAPSIS":"573.987","PERIAPSIS":"570.139","CLASSIFICATION_TYPE":"U","RA_OF_ASC_NODE":"97.2279","FILE":"3878419","ARG_OF_PERICENTER":"266.1293","COUNTRY_CODE":"US","GP_ID":"229350778","MEAN_ELEMENT_THEORY":"SGP4","MEAN_MOTION":"14.98328381","MEAN_MOTION_DOT":"0.00004175","MEAN_MOTION_DDOT":"0.0000000000000","SITE":"AFWTR","INCLINATION":"69.9995","CENTER_NAME":"EARTH","REF_FRAME":"TEME","LAUNCH_DATE":"2021-09-14","NORAD_CAT_ID":"49164","TIME_SYSTEM":"UTC","MEAN_ANOMALY":"93.9549","OBJECT_NAME":"STARLINK-3106","RCS_SIZE":"LARGE","SEMIMAJOR_AXIS":"6950.198","PERIOD":"96.107","REV_AT_EPOCH":"8707","EPHEMERIS_TYPE":"0","OBJECT_ID":"2021-082AL","TLE_LINE2":"2 49164  69.9995  97.2279 0002768 266.1293  93.9549 14.98328381 87079","ECCENTRICITY":"0.00027680","TLE_LINE1":"1 49164U 21082AL  23092.74054734  .00004175  00000-0  35747-3 0  9993","BSTAR":"0.00035747000000","ELEMENT_SET_NO":"999","OBJECT_TYPE":"PAYLOAD","DECAY_DATE":null},{"ARG_OF_PERICENTER":"272.6909","FILE":"3878126","GP_ID":"229317543","COUNTRY_CODE":"US","PERIAPSIS":"570.127","EPOCH":"2023-04-02T12:04:28.113024","APOAPSIS":"573.962","CLASSIFICATION_TYPE":"U","RA_OF_ASC_NODE":"117.8134","INCLINATION":"69.9980","REF_FRAME":"TEME","CENTER_NAME":"EARTH","MEAN_MOTION":"14.98334332","MEAN_MOTION_DDOT":"0.0000000000000","MEAN_MOTION_DOT":"0.00002136","MEAN_ELEMENT_THEORY":"SGP4","SITE":"AFWTR","RCS_SIZE":"LARGE","OBJECT_NAME":"STARLINK-3052","PERIOD":"96.107","SEMIMAJOR_AXIS":"6950.179","LAUNCH_DATE":"2021-09-14","MEAN_ANOMALY":"87.3934","NORAD_CAT_ID":"49165","TIME_SYSTEM":"UTC","ELEMENT_SET_NO":"999","BSTAR":"0.00018677000000","OBJECT_TYPE":"PAYLOAD","DECAY_DATE":null,"OBJECT_ID":"2021-082AM","REV_AT_EPOCH":"8657","EPHEMERIS_TYPE":"0","TLE_LINE1":"1 49165U 21082AM  23092.50310316  .00002136  00000-0  18677-3 0  9997","TLE_LINE2":"2 49165  69.9980 117.8134 0002759 272.6909  87.3934 14.98334332 86571","ECCENTRICITY":"0.00027590"}];
